{"type": "FeatureCollection", "features": [{"type": "Feature", "properties": {"norad_id": 26766, "name": "INTELSAT 10 (IS-10)", "group": "intelsat", "lat": 2.991837762009565, "lon": 81.02039147214165, "alt_km": 36154.15734968972, "timestamp": "2025-12-22T16:55:17.117668+00:00", "meta": {"OBJECT_NAME": "INTELSAT 10 (IS-10)", "OBJECT_ID": "2001-019A", "EPOCH": "2025-12-21T17:53:39.051168", "MEAN_MOTION": 0.99073842, "ECCENTRICITY": 0.00077363, "INCLINATION": 8.6495, "RA_OF_ASC_NODE": 61.0661, "ARG_OF_PERICENTER": 228.4282, "MEAN_ANOMALY": 169.4863, "EPHEMERIS_TYPE": 0, "CLASSIFICATION_TYPE": "U", "NORAD_CAT_ID": 26766, "ELEMENT_SET_NO": 999, "REV_AT_EPOCH": 4382, "BSTAR": 0, "MEAN_MOTION_DOT": -7.1e-07, "MEAN_MOTION_DDOT": 0}, "tle": {"line1": "1 26766U 01019A   25355.74559087 -.00000071  00000+0  00000+0 0  9990", "line2": "2 26766   8.6495  61.0661 0007736 228.4282 169.4863  0.99073842 43828"}}, "geometry": {"type": "Point", "coordinates": [81.02039147214165, 2.991837762009565]}}, {"type": "Feature", "properties": {"norad_id": 26900, "name": "INTELSAT 902 (IS-902)", "group": "intelsat", "lat": -3.759259423930299, "lon": -64.94931467498544, "alt_km": 35771.31233867229, "timestamp": "2025-12-22T16:55:17.117692+00:00", "meta": {"OBJECT_NAME": "INTELSAT 902 (IS-902)", "OBJECT_ID": "2001-039A", "EPOCH": "2025-12-15T13:09:02.081664", "MEAN_MOTION": 1.0027087, "ECCENTRICITY": 0.00045028, "INCLINATION": 5.6536, "RA_OF_ASC_NODE": 74.0372, "ARG_OF_PERICENTER": 189.6359, "MEAN_ANOMALY": 327.9329, "EPHEMERIS_TYPE": 0, "CLASSIFICATION_TYPE": "U", "NORAD_CAT_ID": 26900, "ELEMENT_SET_NO": 999, "REV_AT_EPOCH": 8885, "BSTAR": 0, "MEAN_MOTION_DOT": -2.65e-06, "MEAN_MOTION_DDOT": 0}, "tle": {"line1": "1 26900U 01039A   25349.54794076 -.00000265  00000+0  00000+0 0  9997", "line2": "2 26900   5.6536  74.0372 0004502 189.6359 327.9329  1.00270870 88858"}}, "geometry": {"type": "Point", "coordinates": [-64.94931467498544, -3.759259423930299]}}, {"type": "Feature", "properties": {"norad_id": 27380, "name": "INTELSAT 904 (IS-904)", "group": "intelsat", "lat": -5.764945162134825, "lon": -46.339068636145484, "alt_km": 35779.22156728505, "timestamp": "2025-12-22T16:55:17.117709+00:00", "meta": {"OBJECT_NAME": "INTELSAT 904 (IS-904)", "OBJECT_ID": "2002-007A", "EPOCH": "2025-12-22T04:54:51.714144", "MEAN_MOTION": 1.00270344, "ECCENTRICITY": 0.00019271, "INCLINATION": 6.4767, "RA_OF_ASC_NODE": 71.3235, "ARG_OF_PERICENTER": 249.6, "MEAN_ANOMALY": 172.2947, "EPHEMERIS_TYPE": 0, "CLASSIFICATION_TYPE": "U", "NORAD_CAT_ID": 27380, "ELEMENT_SET_NO": 999, "REV_AT_EPOCH": 4999, "BSTAR": 0, "MEAN_MOTION_DOT": -2.08e-06, "MEAN_MOTION_DDOT": 0}, "tle": {"line1": "1 27380U 02007A   25356.20476521 -.00000208  00000+0  00000+0 0  9996", "line2": "2 27380   6.4767  71.3235 0001927 249.6000 172.2947  1.00270344 49997"}}, "geometry": {"type": "Point", "coordinates": [-46.339068636145484, -5.764945162134825]}}, {"type": "Feature", "properties": {"norad_id": 27426, "name": "DIRECTV 5 (TEMPO 1)", "group": "intelsat", "lat": 1.6664651997648534, "lon": -124.75739712325459, "alt_km": 35775.966529484744, "timestamp": "2025-12-22T16:55:17.117722+00:00", "meta": {"OBJECT_NAME": "DIRECTV 5 (TEMPO 1)", "OBJECT_ID": "2002-023A", "EPOCH": "2025-12-22T05:55:23.259936", "MEAN_MOTION": 1.00271768, "ECCENTRICITY": 0.00031763, "INCLINATION": 4.4248, "RA_OF_ASC_NODE": 77.5416, "ARG_OF_PERICENTER": 200.3147, "MEAN_ANOMALY": 151.9259, "EPHEMERIS_TYPE": 0, "CLASSIFICATION_TYPE": "U", "NORAD_CAT_ID": 27426, "ELEMENT_SET_NO": 999, "REV_AT_EPOCH": 8634, "BSTAR": 0, "MEAN_MOTION_DOT": -3.8e-07, "MEAN_MOTION_DDOT": 0}, "tle": {"line1": "1 27426U 02023A   25356.24679699 -.00000038  00000+0  00000+0 0  9991", "line2": "2 27426   4.4248  77.5416 0003176 200.3147 151.9259  1.00271768 86344"}}, "geometry": {"type": "Point", "coordinates": [-124.75739712325459, 1.6664651997648534]}}, {"type": "Feature", "properties": {"norad_id": 27438, "name": "INTELSAT 905 (IS-905)", "group": "intelsat", "lat": 4.362709536016826, "lon": -151.72734231925003, "alt_km": 35780.941035901924, "timestamp": "2025-12-22T16:55:17.117735+00:00", "meta": {"OBJECT_NAME": "INTELSAT 905 (IS-905)", "OBJECT_ID": "2002-027A", "EPOCH": "2025-12-22T06:22:38.830080", "MEAN_MOTION": 1.00273014, "ECCENTRICITY": 0.00027058, "INCLINATION": 6.3079, "RA_OF_ASC_NODE": 71.9462, "ARG_OF_PERICENTER": 204.7267, "MEAN_ANOMALY": 132.8591, "EPHEMERIS_TYPE": 0, "CLASSIFICATION_TYPE": "U", "NORAD_CAT_ID": 27438, "ELEMENT_SET_NO": 999, "REV_AT_EPOCH": 4958, "BSTAR": 0, "MEAN_MOTION_DOT": 1.12e-06, "MEAN_MOTION_DDOT": 0}, "tle": {"line1": "1 27438U 02027A   25356.26572720  .00000112  00000+0  00000+0 0  9999", "line2": "2 27438   6.3079  71.9462 0002705 204.7267 132.8591  1.00273014 49585"}}, "geometry": {"type": "Point", "coordinates": [-151.72734231925003, 4.362709536016826]}}, {"type": "Feature", "properties": {"norad_id": 27445, "name": "GALAXY 3C (G-3C)", "group": "intelsat", "lat": 0.545091233503131, "lon": -109.50367412464823, "alt_km": 35786.16268483149, "timestamp": "2025-12-22T16:55:17.117749+00:00", "meta": {"OBJECT_NAME": "GALAXY 3C (G-3C)", "OBJECT_ID": "2002-030A", "EPOCH": "2025-12-22T04:09:14.897376", "MEAN_MOTION": 1.00271755, "ECCENTRICITY": 0.00010947, "INCLINATION": 3.2858, "RA_OF_ASC_NODE": 80.4066, "ARG_OF_PERICENTER": 78.8021, "MEAN_ANOMALY": 259.2282, "EPHEMERIS_TYPE": 0, "CLASSIFICATION_TYPE": "U", "NORAD_CAT_ID": 27445, "ELEMENT_SET_NO": 999, "REV_AT_EPOCH": 4471, "BSTAR": 0, "MEAN_MOTION_DOT": -1.33e-06, "MEAN_MOTION_DDOT": 0}, "tle": {"line1": "1 27445U 02030A   25356.17308909 -.00000133  00000+0  00000+0 0  9991", "line2": "2 27445   3.2858  80.4066 0001094  78.8021 259.2282  1.00271755 44718"}}, "geometry": {"type": "Point", "coordinates": [-109.50367412464823, 0.545091233503131]}}, {"type": "Feature", "properties": {"norad_id": 27513, "name": "INTELSAT 906 (IS-906)", "group": "intelsat", "lat": -2.298347731492827, "lon": 49.6135771859338, "alt_km": 35804.63930798209, "timestamp": "2025-12-22T16:55:17.117762+00:00", "meta": {"OBJECT_NAME": "INTELSAT 906 (IS-906)", "OBJECT_ID": "2002-041A", "EPOCH": "2025-12-21T20:19:33.988224", "MEAN_MOTION": 1.00273099, "ECCENTRICITY": 0.00063058, "INCLINATION": 5.3527, "RA_OF_ASC_NODE": 75.1232, "ARG_OF_PERICENTER": 200.0655, "MEAN_ANOMALY": 184.499, "EPHEMERIS_TYPE": 0, "CLASSIFICATION_TYPE": "U", "NORAD_CAT_ID": 27513, "ELEMENT_SET_NO": 999, "REV_AT_EPOCH": 8525, "BSTAR": 0, "MEAN_MOTION_DOT": 3.1e-07, "MEAN_MOTION_DDOT": 0}, "tle": {"line1": "1 27513U 02041A   25355.84692116  .00000031  00000+0  00000+0 0  9994", "line2": "2 27513   5.3527  75.1232 0006305 200.0655 184.4990  1.00273099 85250"}}, "geometry": {"type": "Point", "coordinates": [49.6135771859338, -2.298347731492827]}}, {"type": "Feature", "properties": {"norad_id": 27954, "name": "GALAXY 13 (HORIZONS-1)", "group": "intelsat", "lat": 0.9069846940036163, "lon": -164.73026610934699, "alt_km": 35783.140120721815, "timestamp": "2025-12-22T16:55:17.117774+00:00", "meta": {"OBJECT_NAME": "GALAXY 13 (HORIZONS-1)", "OBJECT_ID": "2003-044A", "EPOCH": "2025-12-22T07:31:51.251232", "MEAN_MOTION": 1.00270621, "ECCENTRICITY": 0.00023631, "INCLINATION": 0.9614, "RA_OF_ASC_NODE": 86.3464, "ARG_OF_PERICENTER": 180.8052, "MEAN_ANOMALY": 146.9051, "EPHEMERIS_TYPE": 0, "CLASSIFICATION_TYPE": "U", "NORAD_CAT_ID": 27954, "ELEMENT_SET_NO": 999, "REV_AT_EPOCH": 4479, "BSTAR": 0, "MEAN_MOTION_DOT": 1.54e-06, "MEAN_MOTION_DDOT": 0}, "tle": {"line1": "1 27954U 03044A   25356.31378763  .00000154  00000+0  00000+0 0  9995", "line2": "2 27954   0.9614  86.3464 0002363 180.8052 146.9051  1.00270621 44797"}}, "geometry": {"type": "Point", "coordinates": [-164.73026610934699, 0.9069846940036163]}}, {"type": "Feature", "properties": {"norad_id": 28358, "name": "INTELSAT 10-02", "group": "intelsat", "lat": -0.02615298472280655, "lon": -15.633376959719017, "alt_km": 35782.73666803786, "timestamp": "2025-12-22T16:55:17.117817+00:00", "meta": {"OBJECT_NAME": "INTELSAT 10-02", "OBJECT_ID": "2004-022A", "EPOCH": "2025-12-22T01:10:32.793888", "MEAN_MOTION": 1.00271641, "ECCENTRICITY": 9.947e-05, "INCLINATION": 0.0191, "RA_OF_ASC_NODE": 73.3386, "ARG_OF_PERICENTER": 234.5255, "MEAN_ANOMALY": 159.6716, "EPHEMERIS_TYPE": 0, "CLASSIFICATION_TYPE": "U", "NORAD_CAT_ID": 28358, "ELEMENT_SET_NO": 999, "REV_AT_EPOCH": 7878, "BSTAR": 0, "MEAN_MOTION_DOT": 1.1e-07, "MEAN_MOTION_DDOT": 0}, "tle": {"line1": "1 28358U 04022A   25356.04899067  .00000011  00000+0  00000+0 0  9998", "line2": "2 28358   0.0191  73.3386 0000994 234.5255 159.6716  1.00271641 78784"}}, "geometry": {"type": "Point", "coordinates": [-15.633376959719017, -0.02615298472280655]}}, {"type": "Feature", "properties": {"norad_id": 28626, "name": "XM-3 (RHYTHM)", "group": "intelsat", "lat": -0.08042286437249759, "lon": 52.2661510202565, "alt_km": 36155.67992941606, "timestamp": "2025-12-22T16:55:17.117839+00:00", "meta": {"OBJECT_NAME": "XM-3 (RHYTHM)", "OBJECT_ID": "2005-008A", "EPOCH": "2025-12-22T03:13:27.740640", "MEAN_MOTION": 0.98949851, "ECCENTRICITY": 0.00020102, "INCLINATION": 0.1976, "RA_OF_ASC_NODE": 82.0468, "ARG_OF_PERICENTER": 277.1098, "MEAN_ANOMALY": 209.796, "EPHEMERIS_TYPE": 0, "CLASSIFICATION_TYPE": "U", "NORAD_CAT_ID": 28626, "ELEMENT_SET_NO": 999, "REV_AT_EPOCH": 4084, "BSTAR": 0, "MEAN_MOTION_DOT": 9.3e-07, "MEAN_MOTION_DDOT": 0}, "tle": {"line1": "1 28626U 05008A   25356.13434885  .00000093  00000+0  00000+0 0  9994", "line2": "2 28626   0.1976  82.0468 0002010 277.1098 209.7960  0.98949851 40846"}}, "geometry": {"type": "Point", "coordinates": [52.2661510202565, -0.08042286437249759]}}]}